{"type":"FeatureCollection","features":[{"type":"Feature","id":1,"geometry":{"type":"Point","coordinates":[113.24537600000008,23.145235300000024]},"properties":{"OBJECTID":1,"序号":1,"餐厅标准名称":"Kavkaz高加索餐厅","品牌官方全称":"Kavkaz restaurant高加索餐厅","所属国家":"俄罗斯","五大文化圈归类":"俄语及东欧圈","门店经营变迁历史":"开业超过10年，主打俄式及高加索地区料理，位于火车站附近德润酒店公寓内，长期服务俄语区客群","是否经历迁址___重装___停业重启":"否","迁址___重装___停业重启具体年份":"无","所在片区开发历史":"火车站/流花片区，为广州传统商贸与外籍人士聚集区，自上世纪90年代起逐渐形成涉外餐饮聚集氛围","所属商圈成型年份":"1900.00","商圈升级关键节点":"90年代逐步形成火车站-流花涉外餐饮氛围，依托外贸商圈持续发展。","数据来源":"实地门店访谈、大众点评商家档案、荔湾片区城建资料、探店调研记录","搜集人":"周奋清","备注":"荔湾在穗俄籍侨民核心就餐据点，主打高加索清真俄餐，不改动本土菜品口味","纬度":23.1452353,"经度":113.24537599999999,"海拔":"15.00","入驻年份":null}},{"type":"Feature","id":2,"geometry":{"type":"Point","coordinates":[113.31775218000007,23.128918270000042]},"properties":{"OBJECTID":2,"序号":2,"餐厅标准名称":"MiCasa墨西哥餐厅（粤海天地店）","品牌官方全称":"MiCasa Mexican Restaurant(By Bocca)","所属国家":"墨西哥","五大文化圈归类":"英语圈","门店经营变迁历史":"前身为Bocca餐厅，2017年前后转型为墨西哥餐厅，位于珠江新城粤海天地商圈，持续经营至今","是否经历迁址___重装___停业重启":"部分经历","迁址___重装___停业重启具体年份":"2017年由Bocca转型更名","所在片区开发历史":"珠江新城CBD，2000年后逐步开发成型，2010年后成为广州高端商业与涉外餐饮聚集地","所属商圈成型年份":"2009.00","商圈升级关键节点":"2017年粤海天地完成品牌升级，集中引入国际化餐饮品牌。","数据来源":"线下实地走访、企查查工商信息、珠江新城片区规划档案、美团商户数据","搜集人":"周奋清","备注":"主打商务配套，弱化墨西哥本土文化营销，核心客群中东、俄罗斯商务客商，广交会客流暴涨","纬度":23.12891827,"经度":113.31775218,"海拔":"4.00","入驻年份":null}},{"type":"Feature","id":3,"geometry":{"type":"Point","coordinates":[113.33505363000006,23.117713980000076]},"properties":{"OBJECTID":3,"序号":3,"餐厅标准名称":"Mezomd曼索蒂西班牙餐厅(广粤店)","品牌官方全称":"Mezomd Cafe Restaurant曼索蒂西班牙餐厅","所属国家":"西班牙","五大文化圈归类":"英语圈","门店经营变迁历史":"广州老牌西班牙餐厅，广粤天地店为旗舰店，自2015年左右开业，连续多年入选米其林指南广州餐厅","是否经历迁址___重装___停业重启":"否","迁址___重装___停业重启具体年份":"无","所在片区开发历史":"珠江新城广粤天地片区，2009年开业，主打国际化休闲餐饮与涉外社交场景","所属商圈成型年份":"2009.00","商圈升级关键节点":"2015年后商圈持续引进米其林餐饮及国际特色品牌。","数据来源":"门店店员深度访谈、西班牙驻华餐饮机构公示信息、天河商圈年鉴、小红书商家官方账号","搜集人":"周奋清","备注":"广州首家西班牙官方认证西餐门店，联动广外开展校企文化合作，海鲜饭本土化微调、伊比利亚火腿原装进口","纬度":23.117713980000001,"经度":113.33505363,"海拔":"-3","入驻年份":null}},{"type":"Feature","id":4,"geometry":{"type":"Point","coordinates":[113.31154147000007,23.120225520000076]},"properties":{"OBJECTID":4,"序号":4,"餐厅标准名称":"JuiceRobot手工意大利面&汉堡精酿（珠江新城店）","品牌官方全称":"JuiceRobot手工意大利面&汉堡精酿","所属国家":"意大利","五大文化圈归类":"英语圈","门店经营变迁历史":"位于珠江新城华利路保利香槟花园，成立于2019年，以手工意面、汉堡与精酿为主打，开业后持续经营，为周边白领及外籍人士提供简餐服务","是否经历迁址___重装___停业重启":"否","迁址___重装___停业重启具体年份":"无","所在片区开发历史":"珠江新城CBD，2000年后开发成型，2010年后成为广州商务核心区，外籍及白领消费群体密集","所属商圈成型年份":"2005.00","商圈升级关键节点":"2015年后商圈升级，引入轻食、精酿餐吧等多元业态。","数据来源":"平台经营大数据、实地探店、天河商务片区规划资料","搜集人":"周奋清","备注":"菜品融入广府本地食材改良，是CBD白领日常社交、外籍客商非正式交流空间","纬度":23.120225520000002,"经度":113.31154146999999,"海拔":"16.00","入驻年份":null}},{"type":"Feature","id":5,"geometry":{"type":"Point","coordinates":[113.23589095000011,23.152512050000041]},"properties":{"OBJECTID":5,"序号":5,"餐厅标准名称":"Otantik欧坦餐厅（广州荔湾店）","品牌官方全称":"Otantik欧坦餐厅黎凡特美食","所属国家":"黎巴嫩","五大文化圈归类":"伊斯兰（中东文化圈）","门店经营变迁历史":"2020年创立，2023年注册广州黎凡特餐厅有限公司，餐厅24 年成立，位于荔湾区西湾路越秀财富公馆，主打地中海及中东特色料理，持续经营至今","是否经历迁址___重装___停业重启":"否","迁址___重装___停业重启具体年份":"无","所在片区开发历史":"荔湾区西湾路片区，依托西村及环市路涉外餐饮辐射带发展，2020年后逐步形成多元餐饮聚集氛围","所属商圈成型年份":"无","商圈升级关键节点":"无","数据来源":"用餐实地体验、老板访谈、荔湾老旧街区改造公示文件","搜集人":"周奋清","备注":"菜品辣度分级适配国人，定期阿拉伯音乐、传统服饰体验，开斋节、中秋推出限定套餐","纬度":23.152512049999999,"经度":113.23589095,"海拔":"17.00","入驻年份":null}},{"type":"Feature","id":6,"geometry":{"type":"Point","coordinates":[113.27866307000011,23.137534840000058]},"properties":{"OBJECTID":6,"序号":6,"餐厅标准名称":"Sama house萨玛之家餐厅(天伦花园店)","品牌官方全称":"Sama house Restaurant萨玛之家餐厅","所属国家":"土耳其","五大文化圈归类":"伊斯兰（中东文化圈）","门店经营变迁历史":"2023年注册公司，位于越秀区建设四马路天伦花园，主打土耳其及中东特色料理，为建设六马路涉外餐饮聚集区新晋品牌","是否经历迁址___重装___停业重启":"否","迁址___重装___停业重启具体年份":"无","所在片区开发历史":"越秀区建设六马路/淘金片区，自上世纪90年代起形成涉外餐饮聚集区，2010年后持续升级为广州老牌异域美食地标","所属商圈成型年份":"1995.00","商圈升级关键节点":"2010年后商圈扩容，新增大量中东、南亚特色餐饮。","数据来源":"线上平台大数据、线下门店走访、越秀商务局区资料","搜集人":"周奋清","备注":"经营三阶段：网红小店\u2192中东社群中转站\u2192城市文化符号，短板为常态化主题活动偏少","纬度":23.137534840000001,"经度":113.27866306999999,"海拔":"20.00","入驻年份":null}},{"type":"Feature","id":7,"geometry":{"type":"Point","coordinates":[113.27079133000007,23.141865750000022]},"properties":{"OBJECTID":7,"序号":7,"餐厅标准名称":"波岛西餐厅（肇庆大厦店）","品牌官方全称":"POULE D’OR波岛西餐厅","所属国家":"约旦","五大文化圈归类":"法语圈","门店经营变迁历史":"2018年成立，位于越秀区环市中路肇庆大厦首层，与沙巴餐厅、铂斯西餐厅同属小北/环市路涉外餐饮带，长期服务阿拉伯及中东客群","是否经历迁址___重装___停业重启":"否","迁址___重装___停业重启具体年份":"无","所在片区开发历史":"环市路/小北片区，广州最早的外籍人士聚集区之一，自上世纪80年代起形成中东、非洲餐饮聚集带","所属商圈成型年份":"1990.00","商圈升级关键节点":"2000年周边写字楼落成，涉外餐饮业态全面扩张。","数据来源":"实地探店走访、小北片区城建档案、短视频商家账号资料","搜集人":"周奋清","备注":"中/英/阿/法四国语言菜单，斋月、圣诞推出限定活动，高性价比，广交会期间外籍客流占比超75%","纬度":23.141865750000001,"经度":113.27079132999999,"海拔":"11.00","入驻年份":null}},{"type":"Feature","id":8,"geometry":{"type":"Point","coordinates":[113.31677966000007,23.122597290000044]},"properties":{"OBJECTID":8,"序号":8,"餐厅标准名称":"玛尚诺意式餐厅（高德置地春广场店）","品牌官方全称":"Pizza Marzano玛尚诺","所属国家":"英国","五大文化圈归类":"意大利语圈","门店经营变迁历史":"品牌源自1965年英国，2006年进入中国，2021年后进入广州市场，高德置地春广场店为广州核心商圈门店，持续经营至今","是否经历迁址___重装___停业重启":"否","迁址___重装___停业重启具体年份":"无","所在片区开发历史":"珠江新城高德置地广场片区，2005年前后开业，为广州早期CBD商业地标，2010年后成为高端商务与家庭消费核心区","所属商圈成型年份":"2005.00","商圈升级关键节点":"2015年后商圈升级，引入多家国际连锁餐饮品牌。","数据来源":"实地采访、大众点评、品牌官方发展史、天河商圈资料","搜集人":"周奋清","备注":"中英意混血品牌，本土化研发烤鸭披萨等融合菜品，配备亲子DIY披萨活动，CBD商务主力配套","纬度":23.122597290000002,"经度":113.31677965999999,"海拔":"-1","入驻年份":null}},{"type":"Feature","id":9,"geometry":{"type":"Point","coordinates":[113.33884163000005,23.126305530000025]},"properties":{"OBJECTID":9,"序号":9,"餐厅标准名称":"西方小巷（领展店）","品牌官方全称":"西方小巷Western Alley Bistro(Kitchen)","所属国家":"波兰","五大文化圈归类":"英语圈","门店经营变迁历史":"2023年注册公司，2024年入驻领展购物广场（原西城都荟），主打波兰主理人制作的法式及西式街头美食，为荔湾区新晋异域西餐品牌","是否经历迁址___重装___停业重启":"否","迁址___重装___停业重启具体年份":"无","所在片区开发历史":"荔湾区领展购物广场片区，2012年西城都荟开业，2020年更名为领展购物广场，2020年后商圈升级引入多元年轻餐饮品牌","所属商圈成型年份":"2012开业，2020完成更名","商圈升级关键节点":"2020年商场升级，引进网红餐饮、异域特色美食。","数据来源":"实地走访、美团、领展商场改造档案、店员访谈","搜集人":"周奋清","备注":"外籍主厨+国内员工，菜品改良适配岭南清淡口味，外籍客占60%，毗邻暨大","纬度":23.12630553,"经度":113.33884163,"海拔":"8.00","入驻年份":null}},{"type":"Feature","id":10,"geometry":{"type":"Point","coordinates":[113.26881041000001,23.142223440000066]},"properties":{"OBJECTID":10,"序号":10,"餐厅标准名称":"沙巴餐厅","品牌官方全称":"SABA RESTAURANT沙巴餐厅(也门风味)","所属国家":"也门","五大文化圈归类":"伊斯兰（中东文化圈）","门店经营变迁历史":"中国首家也门餐厅，2003年创立，2005年注册公司，位于越秀区环市中路，开业超过20年，是广州小北/环市路涉外餐饮带的标志性餐厅之一","是否经历迁址___重装___停业重启":"否","迁址___重装___停业重启具体年份":"无","所在片区开发历史":"环市路/小北片区，广州最早的外籍人士聚集区之一，自上世纪80年代起形成中东、非洲餐饮聚集带","所属商圈成型年份":"1990.00","商圈升级关键节点":"2000年周边写字楼落成，涉外餐饮业态全面扩张","数据来源":"实地用餐调研、老板深度访谈、小北片区城建资料","搜集人":"周奋清","备注":"坚持原汁原味不改良菜品，兼售少量中式家常菜，食客中外占比均衡，以外卖补充客流","纬度":23.142223439999999,"经度":113.26881041,"海拔":"8.00","入驻年份":null}},{"type":"Feature","id":11,"geometry":{"type":"Point","coordinates":[113.31042563000005,23.121552060000056]},"properties":{"OBJECTID":11,"序号":11,"餐厅标准名称":"LETO利多西餐厅（珠江新城店）","品牌官方全称":"LETO利多·酒餐融合西餐厅","所属国家":"俄罗斯","五大文化圈归类":"俄语及东欧圈","门店经营变迁历史":"2023年注册公司，位于珠江新城花城大道，主打俄式、法式、意式融合西餐，为珠江新城新晋异域西餐品牌，持续经营至今","是否经历迁址___重装___停业重启":"否","迁址___重装___停业重启具体年份":"无","所在片区开发历史":"珠江新城CBD，2000年后开发成型，2010年后成为广州高端商业与涉外餐饮聚集地","所属商圈成型年份":"2005.00","商圈升级关键节点":"2015年后商圈丰富异国风味餐吧、融合西餐等业态。","数据来源":"线上平台数据、实地调研、商圈业态报告","搜集人":"周奋清","备注":"菜品双轨制（正宗俄餐+本土化融合菜），营业至凌晨，深夜外籍客流大幅上涨","纬度":23.121552059999999,"经度":113.31042563,"海拔":"25.00","入驻年份":null}},{"type":"Feature","id":12,"geometry":{"type":"Point","coordinates":[113.27125482000008,23.141837320000036]},"properties":{"OBJECTID":12,"序号":12,"餐厅标准名称":"铂斯西餐厅(肇庆大厦店)","品牌官方全称":"Bosphorus Turkish Restaurant铂斯土耳其西餐厅","所属国家":"土耳其","五大文化圈归类":"伊斯兰（中东文化圈）","门店经营变迁历史":"2005年创立品牌，位于越秀区环市中路肇庆大厦，是广州老牌土耳其餐厅，开业超过20年，主打地中海及土耳其烧烤料理，持续经营至今","是否经历迁址___重装___停业重启":"否","迁址___重装___停业重启具体年份":"无","所在片区开发历史":"环市路/小北片区，广州最早的外籍人士聚集区之一，自上世纪80年代起形成中东、非洲餐饮聚集带","所属商圈成型年份":"1990.00","商圈升级关键节点":"2000年周边写字楼落成，涉外餐饮业态全面扩张","数据来源":"实地访谈、大众点评、TripAdvisor、门店经营数据","搜集人":"周奋清","备注":"带露天花园用餐区，清真认证，外籍客复购率高，食材香料部分土耳其原装进口","纬度":23.14183732,"经度":113.27125482,"海拔":"30.00","入驻年份":null}},{"type":"Feature","id":13,"geometry":{"type":"Point","coordinates":[113.25676383000007,23.117134770000064]},"properties":{"OBJECTID":13,"序号":13,"餐厅标准名称":"格鲁吉雅美食馆（万菱广场店）","品牌官方全称":"格鲁吉亚美食馆（StarEyes）","所属国家":"格鲁吉亚","五大文化圈归类":"俄语及东欧圈","门店经营变迁历史":"2018年随格鲁吉亚“一带一路”商务馆落地广州，2021年注册公司，位于越秀区万菱广场9楼，是广州首家格鲁吉亚官方背景餐厅，持续经营至今","是否经历迁址___重装___停业重启":"否","迁址___重装___停业重启具体年份":"无","所在片区开发历史":"万菱广场片区，2004年开业，为广州传统批发商圈，2020年后转型引入文化、餐饮业态，打造涉外商贸+美食场景","所属商圈成型年份":"2004.00","商圈升级关键节点":"2018年引入格鲁吉亚一带一路商务馆，推动商圈业态升级。","数据来源":"实地走访、美团数据、店家访谈、一带一路相关资料","搜集人":"周奋清","备注":"广东省贸促会合作单位，格鲁吉亚驻华大使到访，依托广交会客流周期性波动，主推格鲁吉亚葡萄酒品鉴","纬度":23.11713477,"经度":113.25676383,"海拔":"12.00","入驻年份":null}},{"type":"Feature","id":14,"geometry":{"type":"Point","coordinates":[113.32607140000005,23.123541550000027]},"properties":{"OBJECTID":14,"序号":14,"餐厅标准名称":"弗丽达拉丁之家（广州店）","品牌官方全称":"Frida’s Casa Latina弗丽达拉丁之家墨西哥餐厅","所属国家":"墨西哥","五大文化圈归类":"英语圈","门店经营变迁历史":"2023年注册公司，位于天河区兴盛路猎德片区，主打墨西哥及拉美特色料理，为珠江新城新晋拉美餐饮品牌","是否经历迁址___重装___停业重启":"否","迁址___重装___停业重启具体年份":"无","所在片区开发历史":"天河区兴盛路/猎德片区，2010年后成为广州新兴涉外餐饮聚集区，主打年轻、多元的异国风味消费场景","所属商圈成型年份":"2015.00","商圈升级关键节点":"2020年后商圈新增大量拉美、东南亚小众异域餐饮。","数据来源":"门店实地调研、领馆公示资料、点评平台数据","搜集人":"周奋清","备注":"墨领馆官方合作场地，完全不本土化改味，外籍食客占90%，承办墨西哥官方落地活动","纬度":23.123541549999999,"经度":113.3260714,"海拔":"6.00","入驻年份":null}},{"type":"Feature","id":15,"geometry":{"type":"Point","coordinates":[113.31916661000002,23.109070680000059]},"properties":{"OBJECTID":15,"序号":15,"餐厅标准名称":"广州塔卢特斯法国旋转餐厅（广州塔店）","品牌官方全称":"LUTECE卢特斯法国旋转餐厅","所属国家":"法国","五大文化圈归类":"法语圈","门店经营变迁历史":"2011年随广州塔开业同步运营，位于广州塔105层，是全球最高的法国旋转餐厅之一，长期主打高端法式料理，持续经营至今","是否经历迁址___重装___停业重启":"否","迁址___重装___停业重启具体年份":"无","所在片区开发历史":"广州塔片区，2010年广州塔开业，为广州地标级文旅商业项目，2010年后成为高端餐饮与观光消费地标","所属商圈成型年份":"2010.00","商圈升级关键节点":"2010年依托广州塔开业，打造云端法餐特色IP，成为片区核心餐饮地标。","数据来源":"实地调研、餐厅历史档案、媒体报道、平台消费数据","搜集人":"周奋清","备注":"全球超高旋转法餐，法国领馆定点活动场地，法式技法+岭南食材融合创新","纬度":23.109070679999999,"经度":113.31916661,"海拔":"3.00","入驻年份":null}},{"type":"Feature","id":16,"geometry":{"type":"Point","coordinates":[113.24478274000001,23.150167370000077]},"properties":{"OBJECTID":16,"序号":16,"餐厅标准名称":"El cafetal南美风味馆","品牌官方全称":"El cafetal南美风味馆","所属国家":"哥伦比亚","五大文化圈归类":"英语圈","门店经营变迁历史":"2023年荔湾成立，外资控股或境外品牌（非连锁快餐），原址稳定经营无搬迁","是否经历迁址___重装___停业重启":"否","迁址___重装___停业重启具体年份":"无","所在片区开发历史":"广州荔湾区站前路外贸商圈，依托广州火车站，自1992年起快速发展，现为繁华鞋服批发商圈","所属商圈成型年份":"1992.00","商圈升级关键节点":"2005年商圈业态由纯批发转向商旅+餐饮综合；2018年商圈老旧楼宇改造，涉外餐饮集中落地","数据来源":"调研方法：实地走访、店员/管理者访谈、顾客观察、美团/大众点评数据采集、网络信息补充","搜集人":"黄冬怡","备注":"广州市民对国际美食接受度极高，南美风味在中国也正处于发展上升期","纬度":23.150167369999998,"经度":113.24478274000001,"海拔":"21.00","入驻年份":null}},{"type":"Feature","id":17,"geometry":{"type":"Point","coordinates":[113.27723362000006,23.141005250000035]},"properties":{"OBJECTID":17,"序号":17,"餐厅标准名称":"KRAWN卡兰阿拉伯餐厅","品牌官方全称":"KRAWN卡兰餐厅ArabianRestaurant","所属国家":"中东（阿拉伯风味）","五大文化圈归类":"英语圈","门店经营变迁历史":"广州门店2024年开业，关联公司“珂旺企業有限公司”2018年在香港成立","是否经历迁址___重装___停业重启":"否","迁址___重装___停业重启具体年份":"无","所在片区开发历史":"环市东-淘金片区，初代CBD，现转型为文商旅居融合的活力社区","所属商圈成型年份":"1984.00","商圈升级关键节点":"2017年纳入城市更新，淘金社区住改商，2024年入选“羊城夜市先行区”，文商旅居融合加强","数据来源":"文献调查，现场考察","搜集人":"黄冬怡","备注":"有些伊斯兰建筑元素，中英文双语，还有清真餐饮， 外资经营","纬度":23.141005249999999,"经度":113.27723362,"海拔":"33.00","入驻年份":"2024.00"}},{"type":"Feature","id":18,"geometry":{"type":"Point","coordinates":[113.31759304000002,23.121077760000048]},"properties":{"OBJECTID":18,"序号":18,"餐厅标准名称":"Mammamia意大利餐厅(IFC国金天地店）","品牌官方全称":"Mammamia","所属国家":"意大利","五大文化圈归类":"意大利语圈","门店经营变迁历史":"2010年意大利人在苏州创立总部，在全国有多家门店，广州运营主体关联企业成立于2017年5月18日","是否经历迁址___重装___停业重启":"否","迁址___重装___停业重启具体年份":"无","所在片区开发历史":"珠江新城商圈，90年代规划， 2008年后成片商业落地，2010年各国领馆落地，同步配套涉外休闲餐饮","所属商圈成型年份":"2012.00","商圈升级关键节点":"2018年片区打造外事休闲街区， 2020年商圈升级夜间经济，西餐餐吧集中发展","数据来源":"文献资料","搜集人":"黄冬怡","备注":"位于IFC大楼内，楼内具有多家外国领事馆","纬度":23.121077759999999,"经度":113.31759304000001,"海拔":"5.00","入驻年份":"2017.00"}},{"type":"Feature","id":19,"geometry":{"type":"Point","coordinates":[113.28011979000007,23.13978325000005]},"properties":{"OBJECTID":19,"序号":19,"餐厅标准名称":"MADO冰淇淋咖啡馆（广州淘金店）","品牌官方全称":"MADO","所属国家":"土耳其","五大文化圈归类":"英语圈","门店经营变迁历史":"MADO品牌起源，可追溯至1850年，1991年正式以“MADO”为名开设门店，广州淘金店于2017年开业","是否经历迁址___重装___停业重启":"否","迁址___重装___停业重启具体年份":"无","所在片区开发历史":"环市东-淘金片区，初代CBD，十九世纪末对外贸易扩大，外籍居住区逐渐成熟","所属商圈成型年份":"1984.00","商圈升级关键节点":"2017年纳入城市更新，淘金社区住改商，2024年入选“羊城夜市先行区”，文商旅居融合加强","数据来源":"现场观察、顾客行为记录、店员访谈、小组讨论","搜集人":"黄冬怡","备注":"外籍食客六成以上，中东地区客人最常见，以冰激淋为特色，菜单为中，英，土三语","纬度":23.139783250000001,"经度":113.28011979,"海拔":"49.00","入驻年份":"2017.00"}},{"type":"Feature","id":20,"geometry":{"type":"Point","coordinates":[113.30902705000005,23.127235340000027]},"properties":{"OBJECTID":20,"序号":20,"餐厅标准名称":"ALMARAH 阿尔马拉阿拉伯餐厅","品牌官方全称":"ALMARAH","所属国家":"阿拉伯","五大文化圈归类":"英语圈","门店经营变迁历史":"2025 年下半年正式营业","是否经历迁址___重装___停业重启":"否","迁址___重装___停业重启具体年份":"无","所在片区开发历史":"杨箕商圈，毗邻珠江新城 CBD，早期为外来人口聚集地，后经拆迁改造，现与珠江新城连通","所属商圈成型年份":"2016.00","商圈升级关键节点":"2016年城中村改造基本完成，2025年地铁10号线开通，商圈升级","数据来源":"现场调研，随机访谈方式","搜集人":"黄冬怡","备注":"外资控股、外籍直接运营","纬度":23.127235339999999,"经度":113.30902705,"海拔":"20.00","入驻年份":"2025.00"}},{"type":"Feature","id":21,"geometry":{"type":"Point","coordinates":[113.23522385000001,23.121520220000036]},"properties":{"OBJECTID":21,"序号":21,"餐厅标准名称":"森Some Fusion（荔湾店）","品牌官方全称":"森Some Fusion","所属国家":"中国","五大文化圈归类":"英语圈","门店经营变迁历史":"约2022年前已开业","是否经历迁址___重装___停业重启":"否","迁址___重装___停业重启具体年份":"无","所在片区开发历史":"上下九商圈，具有百年历史，90年代以来为广州文旅特色区，2010年起微改造，现兼具传统和现代魅力","所属商圈成型年份":"1995.00","商圈升级关键节点":"1995年商业步行街经济逐渐发展，2010年后进行微改造，2022年后进行系统化保护","数据来源":"线下调研和线上搜索美团等网络平台","搜集人":"黄冬怡","备注":"老城区创意融合西餐厅，有西关大屋和骑楼特色","纬度":23.121520220000001,"经度":113.23522385,"海拔":"13.00","入驻年份":"2022.00"}},{"type":"Feature","id":22,"geometry":{"type":"Point","coordinates":[113.27631090000011,23.139779800000042]},"properties":{"OBJECTID":22,"序号":22,"餐厅标准名称":"黑手制面·Gentle Pasta(保利时光里店)","品牌官方全称":"Gentle Pasta","所属国家":"中国","五大文化圈归类":"英语圈","门店经营变迁历史":"2023年万菱汇成立，2024年入驻保利时光里，截至2026年广佛深约9家门店","是否经历迁址___重装___停业重启":"否","迁址___重装___停业重启具体年份":"无","所在片区开发历史":"环市东核心商圈，越秀建设街道保利时光里商场，初代CBD，2024年进行品牌升级","所属商圈成型年份":"1985.00","商圈升级关键节点":"2005年商圈商业综合体规模扩大，2018年完成去百货化改造，转型为购物中心","数据来源":"和店内外国友人交谈，以及采访店内中国用户","搜集人":"黄冬怡","备注":"为外资注资企业，高度迎合中国市场，菜色本土化，但冲击了外国用户","纬度":23.139779799999999,"经度":113.2763109,"海拔":"29.00","入驻年份":"2022.00"}},{"type":"Feature","id":23,"geometry":{"type":"Point","coordinates":[113.25684538000007,23.152944380000065]},"properties":{"OBJECTID":23,"序号":23,"餐厅标准名称":"库斯帕餐厅KHUSHBOO RESTAURANT(柏丽A座店)","品牌官方全称":"库斯帕印度餐厅","所属国家":"印度","五大文化圈归类":"英语圈","门店经营变迁历史":"暂无","是否经历迁址___重装___停业重启":"否","迁址___重装___停业重启具体年份":"无","所在片区开发历史":"环市东核心商圈，初代CBD，80-90年代辉煌，2000年后进入转型期，2020年后活力加强","所属商圈成型年份":"1985.00","商圈升级关键节点":"2020年片区改造开始，商圈从零散走向规划","数据来源":"实地观察、非结构化访谈","搜集人":"黄冬怡","备注":"中外食客比例约为1:1，位于柏丽NYC综合商业体内，在广交会等大型展会期间客流量明显上涨","纬度":23.152944380000001,"经度":113.25684538,"海拔":"18.00","入驻年份":"2024.00"}},{"type":"Feature","id":24,"geometry":{"type":"Point","coordinates":[113.27125282000009,23.141827320000061]},"properties":{"OBJECTID":24,"序号":24,"餐厅标准名称":"安塔利亚（Antalya）土耳其餐厅（小北店）","品牌官方全称":"Antalya","所属国家":"土耳其","五大文化圈归类":"英语圈","门店经营变迁历史":"实际门店开业后，2014年运营主体成立，品牌在天河猎德开设分店","是否经历迁址___重装___停业重启":"否","迁址___重装___停业重启具体年份":"无","所在片区开发历史":"环市东路/区庄商圈，80-90年代辉煌，初代CBD，2022年完成改造升级","所属商圈成型年份":"1985.00","商圈升级关键节点":"2020年片区改造开始，商圈从零散走向规划","数据来源":"实地调研，访谈，文献资料","搜集人":"黄冬怡","备注":"核心客群以外籍人士为，主位于小北路外籍人士聚集区，未做过度本土化改良","纬度":23.141827320000001,"经度":113.27125282,"海拔":"30.00","入驻年份":"2022.00"}},{"type":"Feature","id":25,"geometry":{"type":"Point","coordinates":[113.32369531000006,23.123188230000039]},"properties":{"OBJECTID":25,"序号":25,"餐厅标准名称":"PIZZA ITALIA意式扒屋（兴盛路店）","品牌官方全称":"PIZZA ITALIA意式扒屋","所属国家":"意大利","五大文化圈归类":"意大利语圈","门店经营变迁历史":"大概为2021年开业","是否经历迁址___重装___停业重启":"否","迁址___重装___停业重启具体年份":"无","所在片区开发历史":"天河珠江新城兴盛路外籍休闲街区，2010年连片开发","所属商圈成型年份":"2012.00","商圈升级关键节点":"2022年兴盛路升级拉美特色美食街区","数据来源":"实地调研，访谈，文献资料","搜集人":"黄冬怡","备注":"采用中英双语服务模式，服务广交会、国际展会外国客商，兼顾意大利风味和本土化","纬度":23.12318823,"经度":113.32369531000001,"海拔":"1.00","入驻年份":null}},{"type":"Feature","id":26,"geometry":{"type":"Point","coordinates":[113.2709401300001,23.142399400000045]},"properties":{"OBJECTID":26,"序号":26,"餐厅标准名称":"Hadramout Restaurant （怡东大厦店）","品牌官方全称":"Hadramout Restaurant 清真弘汇西餐厅","所属国家":"也门（阿拉伯）","五大文化圈归类":"英语圈","门店经营变迁历史":"大概2008年到2013年开业","是否经历迁址___重装___停业重启":"否","迁址___重装___停业重启具体年份":"无","所在片区开发历史":"环市东核心商圈，初代CBD，80-90年代辉煌，2000年后进入转型期，2020年后活力加强","所属商圈成型年份":"1985.00","商圈升级关键节点":"2020年片区改造开始，商圈从零散走向规划","数据来源":"实地用餐调研、老板深度访谈","搜集人":"黄冬怡","备注":"朴实中东风格，中外服务人员均有，外籍用餐区接近满座，本地散座区约五成","纬度":23.142399399999999,"经度":113.27094013,"海拔":"23.00","入驻年份":null}},{"type":"Feature","id":27,"geometry":null,"properties":{"OBJECTID":27,"Shape":null,"序号":27,"餐厅标准名称":"泰安门TaianTable和斯蒂勒Stiller（同属一个集团的两个门店）","品牌官方全称":"泰安门TaianTable和斯蒂勒Stiller","所属国家":"德国","五大文化圈归类":"德语圈","门店经营变迁历史":"两个广州门店同期在2021年4月开业，2016年集团在上海创立，两地各一家泰安门和一家斯蒂勒","是否经历迁址___重装___停业重启":"否","迁址___重装___停业重启具体年份":"无","所在片区开发历史":"环市东核心商圈，初代CBD，80-90年代辉煌，2000年后进入转型期，2020年后活力加强","所属商圈成型年份":"1985.00","商圈升级关键节点":"2020年片区改造开始，商圈从零散走向规划","数据来源":"文献资料收集","搜集人":"黄冬怡","备注":"广州泰安门为米其林二星，走高端定位路线，斯蒂勒为米其林一星，定位更亲民，均兼具西餐的精致和粤式风味","纬度":null,"经度":null,"海拔":"23\n17","入驻年份":null}},{"type":"Feature","id":28,"geometry":{"type":"Point","coordinates":[113.27886949000003,23.140131650000058]},"properties":{"OBJECTID":28,"序号":28,"餐厅标准名称":"Mark&Mars Restaurant","品牌官方全称":"Mark&Mars Restaurant","所属国家":"中国","五大文化圈归类":"英语圈","门店经营变迁历史":"本店位于环市东路，于2020年开业，新店位于天河，于2021年下半年开业","是否经历迁址___重装___停业重启":"否","迁址___重装___停业重启具体年份":"无","所在片区开发历史":"环市东核心商圈，初代CBD，80-90年代辉煌，2000年后进入转型期，2020年后活力加强","所属商圈成型年份":"1985.00","商圈升级关键节点":"2020年片区改造开始，商圈从零散走向规划","数据来源":"文献资料搜集","搜集人":"黄冬怡","备注":"日常国内顾客占60%，外籍顾客占40%，周末外籍客源占比可达半数以上","纬度":23.140131650000001,"经度":113.27886949000001,"海拔":"20.00","入驻年份":null}},{"type":"Feature","id":29,"geometry":{"type":"Point","coordinates":[113.25919136000005,23.116318870000043]},"properties":{"OBJECTID":29,"序号":29,"餐厅标准名称":"haxnbauer海森堡德国餐厅（星寰店）","品牌官方全称":"haxnbauer","所属国家":"德国","五大文化圈归类":"德语圈","门店经营变迁历史":"广州首店（升级旗舰店），2023年5月6日开业","是否经历迁址___重装___停业重启":"否","迁址___重装___停业重启具体年份":"无","所在片区开发历史":"海珠广场商圈，20世纪50年代承接3-31届广交会，主要承担对外贸易和外事接待工作；1974年广交会搬迁后，转向本地民生零售贸易；2011年后紧跟城市更新迭代，现代化魅力加强","所属商圈成型年份":"1974.00","商圈升级关键节点":"2023年星寰国际商业中心全面开业，现代商圈成熟","数据来源":"文献资料收集，美团等平台评价","搜集人":"黄冬怡","备注":"正宗德国风味，配备270°珠江露台，西式节日氛围浓重","纬度":23.116318870000001,"经度":113.25919136,"海拔":"10.00","入驻年份":null}},{"type":"Feature","id":30,"geometry":{"type":"Point","coordinates":[113.3080484300001,23.106225730000062]},"properties":{"OBJECTID":30,"序号":30,"餐厅标准名称":"GAIA Whisky bar&restaurant","品牌官方全称":"GAIA Whisky bar&restaurant","所属国家":"中国","五大文化圈归类":"英语圈","门店经营变迁历史":"2022年3月正式开业","是否经历迁址___重装___停业重启":"否","迁址___重装___停业重启具体年份":"无","所在片区开发历史":"滨江东商圈，90年代中期 ，高端商品房连片开发，后续商业发展以休闲轻奢为主","所属商圈成型年份":"2019.00","商圈升级关键节点":"2019年片区豪宅入住饱和，且地铁配套逐渐完善，本地和跨区客流增多，消费需求上升","数据来源":"文献资料收集","搜集人":"黄冬怡","备注":"实行日间西餐正餐\uFF0B夜间威士忌清吧双模式，属于小众本土独立餐吧","纬度":23.106225729999998,"经度":113.30804843,"海拔":"54.00","入驻年份":null}},{"type":"Feature","id":31,"geometry":{"type":"Point","coordinates":[113.33370629000001,23.117912400000023]},"properties":{"OBJECTID":31,"序号":31,"餐厅标准名称":"LE HACHOIR亚莎·法国餐厅&BAR","品牌官方全称":"LE HACHOIR","所属国家":"法国","五大文化圈归类":"法语圈","门店经营变迁历史":"2021年8月下旬开业","是否经历迁址___重装___停业重启":"否","迁址___重装___停业重启具体年份":"无","所在片区开发历史":"体育西商圈，80年代依托体育中心起步，90年代商城地铁落成成型，05年后多商场集聚成核心商圈","所属商圈成型年份":"2005.00","商圈升级关键节点":"96年天河城奠基，05年双地铁+正佳广场完成商圈升级","数据来源":"文献调查","搜集人":"黄冬怡","备注":"法式炭火烟熏料理，复古酒馆氛围，外籍客群聚集，熨斗牛排为招牌","纬度":23.117912400000002,"经度":113.33370628999999,"海拔":"0.00","入驻年份":null}},{"type":"Feature","id":32,"geometry":{"type":"Point","coordinates":[113.32159086000001,23.134712610000065]},"properties":{"OBJECTID":32,"序号":32,"餐厅标准名称":"荔雅图Li Chateau","品牌官方全称":"荔雅图Li Chateau","所属国家":"中国","五大文化圈归类":"法语圈","门店经营变迁历史":"2014年开业","是否经历迁址___重装___停业重启":"否","迁址___重装___停业重启具体年份":"无","所在片区开发历史":"体育西商圈，80年代依托体育中心起步，90年代商城地铁落成成型，05年后多商场集聚成核心商圈","所属商圈成型年份":"2005.00","商圈升级关键节点":"96年天河城奠基，05年双地铁+正佳广场完成商圈升级","数据来源":"大众点评；赢商网、凤凰网美食频道；","搜集人":"黄冬怡","备注":"米其林主厨法式西餐，轻奢私密氛围，岭南风格与西式风格并存","纬度":23.134712610000001,"经度":113.32159086,"海拔":"-4","入驻年份":null}},{"type":"Feature","id":33,"geometry":{"type":"Point","coordinates":[113.25885259000006,23.116320060000078]},"properties":{"OBJECTID":33,"序号":33,"餐厅标准名称":"星鈅RasaSingapura·新加坡料理（全国首店）","品牌官方全称":"星鈅RasaSingapura","所属国家":"中国","五大文化圈归类":"英语圈","门店经营变迁历史":"2026年2月10日正式开业","是否经历迁址___重装___停业重启":"否","迁址___重装___停业重启具体年份":"无","所在片区开发历史":"海珠广场商圈，20世纪50年代承接3-31届广交会，主要承担对外贸易和外事接待工作；1974年广交会搬迁后，转向本地民生零售贸易；2011年后紧跟城市更新迭代，现代化魅力加强","所属商圈成型年份":"1974.00","商圈升级关键节点":"2023年星寰国际商业中心全面开业，现代商圈成熟","数据来源":"携程旅行网页信息","搜集人":"黄冬怡","备注":"拥有江锦南洋环境和地道南洋风味","纬度":23.11632006,"经度":113.25885259,"海拔":"9.00","入驻年份":null}},{"type":"Feature","id":34,"geometry":{"type":"Point","coordinates":[113.32142055000008,23.144545010000058]},"properties":{"OBJECTID":34,"序号":34,"餐厅标准名称":"Le Souvent乐苏·城市中轴观景西餐厅","品牌官方全称":"Le Souvent乐苏","所属国家":"中国","五大文化圈归类":"法语圈","门店经营变迁历史":"2021年底","是否经历迁址___重装___停业重启":"否","迁址___重装___停业重启具体年份":"无","所在片区开发历史":"天河北商圈，90年代写字楼集群起步成型，2000年配套完善走向成熟，2021年ICC环贸天地丰富休闲商业","所属商圈成型年份":"2000.00","商圈升级关键节点":"2021年ICC环贸天地开业，业态进一步焕新","数据来源":"大众点评，抖音探店视频","搜集人":"黄冬怡","备注":"欧式空中花园设计，价格相对平价，提供广州城市中轴线观景平台","纬度":23.144545010000002,"经度":113.32142055,"海拔":"22.00","入驻年份":null}},{"type":"Feature","id":35,"geometry":{"type":"Point","coordinates":[113.24375551000003,23.110102510000047]},"properties":{"OBJECTID":35,"序号":35,"餐厅标准名称":"火车头法国西餐厅","品牌官方全称":"火车头法国西餐厅","所属国家":"中国","五大文化圈归类":"法语圈","门店经营变迁历史":"2007年正式对外开业","是否经历迁址___重装___停业重启":"部分经历","迁址___重装___停业重启具体年份":"2026年拆除门店标志性两节火车车厢餐区，做出较大空间调整","所在片区开发历史":"沙面商圈，1861年划为英法租界，建成欧式建筑群；1996年划为历史文化保护区，商圈成型成熟；2019年全岛微改造，文旅餐饮商业全面活化","所属商圈成型年份":"1996.00","商圈升级关键节点":"2019年全岛整体微改造，文旅特色加强","数据来源":"大众点评、本地文旅新闻、抖音探店图文、商家截图整合整","搜集人":"黄冬怡","备注":"沙面老牌法式西餐厅，复古欧式小楼，正统法餐，区域美食收藏榜第一","纬度":23.110102510000001,"经度":113.24375551,"海拔":"6.00","入驻年份":null}},{"type":"Feature","id":36,"geometry":{"type":"Point","coordinates":[113.32625240000004,23.118070430000046]},"properties":{"OBJECTID":36,"序号":36,"餐厅标准名称":"Morton's Grille莫尔顿扒房（天汇igc店）","品牌官方全称":"Morton's Grille莫尔顿扒房","所属国家":"美国","五大文化圈归类":"英语圈","门店经营变迁历史":"2016年12月（天汇igc开业同期入驻，亚洲首店）","是否经历迁址___重装___停业重启":"否","迁址___重装___停业重启具体年份":"无","所在片区开发历史":"珠江新城猎德商圈，90年代规划CBD，07年猎德旧改奠基，2010年片区成熟，2016年天汇igc落地补齐高端商业","所属商圈成型年份":"2010.00","商圈升级关键节点":"2016年天汇igc开业，引入大量国际首店、高端西餐，业态升级","数据来源":"赢商网、新华网美食、携程探店、高德地图标注、商家平台页面整合","搜集人":"黄冬怡","备注":"美国连锁美式扒房，亚洲首店落户猎德，临江观景，厚切熟成牛排为招牌","纬度":23.11807043,"经度":113.3262524,"海拔":"13.00","入驻年份":null}},{"type":"Feature","id":37,"geometry":{"type":"Point","coordinates":[113.55203930000005,22.800931760000026]},"properties":{"OBJECTID":37,"序号":37,"餐厅标准名称":"Hill Side Bistro山边西餐吧","品牌官方全称":"Hill Side Bistro山边西餐吧","所属国家":"中国本土个体户（外籍合伙人经营)","五大文化圈归类":"英语圈","门店经营变迁历史":"2023年9月工商注册正式开业","是否经历迁址___重装___停业重启":"否","迁址___重装___停业重启具体年份":"无","所在片区开发历史":"南沙金洲商圈，2000年起步居住开发，2016年华汇国际广场落地商圈成熟，2020年后沿街兴起小众西餐餐酒馆业态","所属商圈成型年份":"2016.00","商圈升级关键节点":"2023年社区底商升级，新增多家外资融合西餐、特色餐吧，休闲业态丰富","数据来源":"高德地图商户标注、BOSS直聘工商信息、南方都市报探店报道、抖音本地商家官方账号、赢商网南沙商业板块资讯整合","搜集人":"黄冬怡","备注":"山脚美式乡村餐酒馆，融合法美西餐，含驻唱演出，每日设酒水欢乐时光","纬度":22.800931760000001,"经度":113.5520393,"海拔":"6.00","入驻年份":null}},{"type":"Feature","id":38,"geometry":{"type":"Point","coordinates":[113.2448560900001,23.14476650000006]},"properties":{"OBJECTID":38,"序号":38,"餐厅标准名称":"Bizim Mehelle美和乐西餐厅","品牌官方全称":"Bizim Mehelle美和乐西餐厅","所属国家":"阿塞拜疆","五大文化圈归类":"英语圈","门店经营变迁历史":"2024年初正式开业","是否经历迁址___重装___停业重启":"否","迁址___重装___停业重启具体年份":"无","所在片区开发历史":"流花商圈，1957年广交会落址奠定商贸基础，90年代成型全国服装批发集群，2018年后市场城市更新，新增多国特色涉外西餐配套","所属商圈成型年份":"1995.00","商圈升级关键节点":"2018年专业市场城市更新，大量中亚、中东外资清真西餐入驻，完善涉外餐饮配套。","数据来源":"高德地图商户标注、抖音本地探店图文、越秀流花商圈官方资讯、涉外餐饮商户平台、赢商网流花板块商业资料整合","搜集人":"黄冬怡","备注":"阿塞拜疆外资清真西餐，主打高加索烤肉果仁烤鸡，服务流花外贸客商","纬度":23.144766499999999,"经度":113.24485609,"海拔":"15.00","入驻年份":null}},{"type":"Feature","id":39,"geometry":{"type":"Point","coordinates":[113.23949927000001,23.127291030000038]},"properties":{"OBJECTID":39,"序号":39,"餐厅标准名称":"Hot Stone炎岩·地中海菜系（陈家祠店）","品牌官方全称":"Hot Stone炎岩·地中海菜系","所属国家":"黎巴嫩","五大文化圈归类":"伊斯兰（中东文化圈）","门店经营变迁历史":"2004年7月正式开业","是否经历迁址___重装___停业重启":"否","迁址___重装___停业重启具体年份":"无","所在片区开发历史":"陈家祠文旅商圈，以百年陈家祠文物为核心，早年以社区底商、传统西关小店为主，2024年片区城市更新后聚集特色涉外西餐、文旅休闲商业","所属商圈成型年份":"2025.00","商圈升级关键节点":"2025年陈家祠东广场景观改造完工，商圈文旅+休闲商业全面成熟","数据来源":"高德地图商户信息、抖音本地探店、携程美食笔记、荔湾区陈家祠商圈官方资讯、品牌门店工商信息整合","搜集人":"黄冬怡","备注":"主打果木烤肉和中东特色料理","纬度":23.127291029999999,"经度":113.23949927,"海拔":"19.00","入驻年份":null}},{"type":"Feature","id":40,"geometry":{"type":"Point","coordinates":[113.27380869000001,23.144523660000061]},"properties":{"OBJECTID":40,"序号":40,"餐厅标准名称":"SUKH MAHAL苏赫玛哈印度餐厅（小北店）","品牌官方全称":"SUKH MAHAL苏赫玛哈印度餐厅","所属国家":"外资合作（中印合资，印度籍主厨驻店）","五大文化圈归类":"英语圈","门店经营变迁历史":"2009年开业","是否经历迁址___重装___停业重启":"部分经历","迁址___重装___停业重启具体年份":"2021年整体重装，还原北印传统宫廷内饰，后续仅软装维护","所在片区开发历史":"环市路/小北片区，广州最早的外籍人士聚集区之一，自上世纪80年代起形成中东、非洲餐饮聚集带","所属商圈成型年份":"1990.00","商圈升级关键节点":"2000年周边写字楼落成，涉外餐饮业态全面扩张","数据来源":"高德地图商户信息、携程探店笔记、抖音本地美食内容、企业工商注册信息、越秀登峰街道商圈历史资料整合","搜集人":"黄冬怡","备注":"17年的中印合资北印素食餐厅，进口印度香料，小北涉外商圈老牌异域餐饮","纬度":23.144523660000001,"经度":113.27380869,"海拔":"22.00","入驻年份":null}},{"type":"Feature","id":41,"geometry":{"type":"Point","coordinates":[113.31011978000004,23.143129940000051]},"properties":{"OBJECTID":41,"序号":41,"餐厅标准名称":"喀秋莎俄罗斯西餐厅（广州分店）","品牌官方全称":"喀秋莎俄罗斯西餐厅","所属国家":"俄罗斯","五大文化圈归类":"俄语及东欧圈","门店经营变迁历史":"2015年4月注册开业","是否经历迁址___重装___停业重启":"部分经历","迁址___重装___停业重启具体年份":"2022年小幅翻新软装，增设露台就餐区","所在片区开发历史":"天河北时代广场CBD商圈，依托广州城市东进规划、六运会红利，90年代建成高端写字楼集群，时代广场落地带动高端零售、涉外餐饮聚集","所属商圈成型年份":"1999.00","商圈升级关键节点":"2000-2014年，大量外资企业、外国领馆办事机构进驻，涉外餐厅逐步落地","数据来源":"企查查工商信息、携程/去哪儿商户资料、赢商网天河北商圈史料、本地探店图文整合","搜集人":"黄冬怡","备注":"俄式复古宫廷装修，设露天露台，偶尔有俄式民谣小型演出","纬度":23.143129940000001,"经度":113.31011977999999,"海拔":"22.00","入驻年份":null}},{"type":"Feature","id":42,"geometry":{"type":"Point","coordinates":[113.27299783000001,23.141750600000023]},"properties":{"OBJECTID":42,"序号":42,"餐厅标准名称":"广州洒德餐厅（金鹰大厦店）","品牌官方全称":"洒德餐厅","所属国家":"巴基斯坦","五大文化圈归类":"伊斯兰（中东文化圈）","门店经营变迁历史":"2018年前后入驻金鹰大厦首层","是否经历迁址___重装___停业重启":"否","迁址___重装___停业重启具体年份":"无","所在片区开发历史":"环市东-淘金片区，初代CBD，十九世纪末对外贸易扩大，外籍居住区逐渐成熟","所属商圈成型年份":"1984.00","商圈升级关键节点":"2017年纳入城市更新，淘金社区住改商，2024年入选“羊城夜市先行区”，文商旅居融合加强","数据来源":"大众点评、Trip.com、360地图本地商户档案、写字楼招商资料、探店图文平台","搜集人":"黄冬怡","备注":"长期服务在穗中东、南亚外籍人士，同时吸引猎奇异域风味本地食客","纬度":23.141750600000002,"经度":113.27299782999999,"海拔":"34.00","入驻年份":null}},{"type":"Feature","id":43,"geometry":{"type":"Point","coordinates":[113.28145182000003,23.140881130000025]},"properties":{"OBJECTID":43,"序号":43,"餐厅标准名称":"苏坦土耳其餐厅（Sultan Restaurant）","品牌官方全称":"苏坦土耳其餐厅（Sultan Restaurant）","所属国家":"土耳其","五大文化圈归类":"英语圈","门店经营变迁历史":"2005年创立入驻白云宾馆片区","是否经历迁址___重装___停业重启":"否","迁址___重装___停业重启具体年份":"无","所在片区开发历史":"环市东-淘金片区，初代CBD，十九世纪末对外贸易扩大，外籍居住区逐渐成熟","所属商圈成型年份":"1984.00","商圈升级关键节点":"2017年纳入城市更新，淘金社区住改商，2024年入选“羊城夜市先行区”，文商旅居融合加强","数据来源":"大众点评、信息时报官方报道、高德商户档案、海外旅行探店平台、白云宾馆招商资料","搜集人":"黄冬怡","备注":"扎根广州老牌涉外区，长期服务各国领事馆、外籍商旅人士","纬度":23.14088113,"经度":113.28145182,"海拔":"34.00","入驻年份":null}},{"type":"Feature","id":44,"geometry":{"type":"Point","coordinates":[113.3345675600001,23.118111710000051]},"properties":{"OBJECTID":44,"序号":44,"餐厅标准名称":"OGGI意大利餐厅（广粤新天地）","品牌官方全称":"OGGI意大利餐厅","所属国家":"中国","五大文化圈归类":"英语圈","门店经营变迁历史":"2010年广粤天地铺位开业，该门店持续经营至今；2022年冬季本店全店封闭翻新，其余年份仅露台局部微调，本店无闭店、搬迁行为","是否经历迁址___重装___停业重启":"否","迁址___重装___停业重启具体年份":"无","所在片区开发历史":"猎德村2003年启动整体旧改，住宅地块2008年交付，广粤天地商业地块同步施工","所属商圈成型年份":"2009.00","商圈升级关键节点":"2010年首批外籍西餐入驻；2016年广粤天地二期开业扩容西餐业态；2020年划定猎德国际美食示范街区","数据来源":"天河区猎德旧改公示、合景泰富广粤天地开业公告、广州奥吉餐饮工商档案、2022《南方都市报》本店翻新报道","搜集人":"周奋清","备注":"2016露台半围挡改造不认定重装；疫情临时闭店不计变迁","纬度":23.118111710000001,"经度":113.33456756,"海拔":"4.00","入驻年份":null}},{"type":"Feature","id":45,"geometry":{"type":"Point","coordinates":[113.3218314400001,23.118922540000028]},"properties":{"OBJECTID":45,"序号":45,"餐厅标准名称":"LIMONI意轩","品牌官方全称":"LIMONI意轩","所属国家":"美国","五大文化圈归类":"英语圈","门店经营变迁历史":"2007年随酒店开业，三楼固定位置经营；2018年酒店整体翻新，本店封闭改造32天，本店无地址变更、无自主停业搬迁","是否经历迁址___重装___停业重启":"部分经历","迁址___重装___停业重启具体年份":"2018年","所在片区开发历史":"2000年珠江新城规划落地，富力酒店地块2003年动工","所属商圈成型年份":"2007.00","商圈升级关键节点":"2010年西塔IFC竣工开业；2019年珠江新城金融商圈业态升级政策落地","数据来源":"富力地产竣工档案、万豪官方公众号酒店翻新公告、2018《南方都市报》酒店改造报道","搜集人":"周奋清","备注":"本店为酒店配套，无独立工商主体","纬度":23.11892254,"经度":113.32183144,"海拔":"13.00","入驻年份":null}},{"type":"Feature","id":46,"geometry":{"type":"Point","coordinates":[113.31786753000006,23.120215590000043]},"properties":{"OBJECTID":46,"序号":46,"餐厅标准名称":"广州四季酒店·意珍·意式自助餐（广州国际金融中心店）","品牌官方全称":"广州四季酒店Caffe Mondo意珍餐厅","所属国家":"加拿大","五大文化圈归类":"英语圈","门店经营变迁历史":"2012年西塔酒店开业，本店72层固定运营；仅更换主厨、更新菜单，本店无全店封闭改造、无搬迁记录","是否经历迁址___重装___停业重启":"否","迁址___重装___停业重启具体年份":"无","所在片区开发历史":"2005年广州国际金融中心西塔地块动工建设","所属商圈成型年份":"2012.00","商圈升级关键节点":"2014、2018年IFC裙楼两轮商业业态升级","数据来源":"广州IFC竣工官方档案、四季酒店大中华官网、行业媒体《会奖旅游》报道","搜集人":"周奋清","备注":"无","纬度":23.120215590000001,"经度":113.31786753,"海拔":"5.00","入驻年份":null}},{"type":"Feature","id":47,"geometry":{"type":"Point","coordinates":[113.31537371000002,23.148837840000056]},"properties":{"OBJECTID":47,"序号":47,"餐厅标准名称":"广州天河希尔顿酒店意畔意大利餐厅","品牌官方全称":"广州天河希尔顿酒店意畔意大利餐厅","所属国家":"美国","五大文化圈归类":"英语圈","门店经营变迁历史":"2011年酒店开业，本店二楼营业；2024年11月本店全区域封闭改造，2025年1月恢复营业，本店无地址变动","是否经历迁址___重装___停业重启":"部分经历","迁址___重装___停业重启具体年份":"                2024年11月-2025年1月","所在片区开发历史":"1998年天河北、东站片区商务写字楼地块批量开发","所属商圈成型年份":"2011.00","商圈升级关键节点":"2017年广州东站枢纽扩建；2020年天河北国际餐饮街区打造","数据来源":"希尔顿大中华焕新公告、携程商旅酒店官方档案","搜集人":"周奋清","备注":"改造为酒店统一工程","纬度":23.148837839999999,"经度":113.31537371,"海拔":"29.00","入驻年份":null}},{"type":"Feature","id":48,"geometry":{"type":"Point","coordinates":[113.32071263000012,23.120707950000053]},"properties":{"OBJECTID":48,"序号":48,"餐厅标准名称":"Mercato莫卡多意餐","品牌官方全称":"Mercato莫卡多意餐","所属国家":"                美国","五大文化圈归类":"英语圈","门店经营变迁历史":"2018年4月随K11开业本店入驻8层，铺位固定；2023年仅店内软装小幅调整，本店全程正常营业，无闭店、无搬迁","是否经历迁址___重装___停业重启":"否","迁址___重装___停业重启具体年份":"无","所在片区开发历史":"2010年周大福金融中心东塔地块动工","所属商圈成型年份":"2018.00","商圈升级关键节点":"2022年K11商场8-9层高端国际餐饮扩容升级","数据来源":"赢商网K11开业报道、Jean-Georges品牌门店档案、本店工商固定地址备案","搜集人":"周奋清","备注":"广州仅此一家门店，软装微调未闭店不认定重装","纬度":23.12070795,"经度":113.32071263,"海拔":"2.00","入驻年份":null}},{"type":"Feature","id":49,"geometry":{"type":"Point","coordinates":[113.31693612000004,23.125056390000054]},"properties":{"OBJECTID":49,"序号":49,"餐厅标准名称":"Restaurant Emmelyn","品牌官方全称":"Restaurant Emmelyn","所属国家":"中国","五大文化圈归类":"法语圈","门店经营变迁历史":"本店初代2020年高德置地冬广场开业；2023年10月本店自主闭店7个月，门店整体跨商圈搬迁，2024年5月本店迁至侨鑫国际首层重装开业，现址本店无二次调整","是否经历迁址___重装___停业重启":"部分经历","迁址___重装___停业重启具体年份":"2023年10月-2024年5月","所在片区开发历史":"原片区高德置地2004年地块动工；现片区侨鑫国际2010年地块动工","所属商圈成型年份":"2017.00","商圈升级关键节点":"高德置地2015年法式高端餐饮集群落地；侨鑫国际2021年露台西餐街区打造完成","数据来源":"《羊城晚报》本店搬迁报道、本店工商地址变更登记、米其林广州餐饮指南","搜集人":"周奋清","备注":"该门店两次地址变迁，品牌无其他分店，搬迁为本店战略调整，非倒闭","纬度":23.125056390000001,"经度":113.31693611999999,"海拔":"-43","入驻年份":null}},{"type":"Feature","id":50,"geometry":{"type":"Point","coordinates":[113.31033452000008,23.140605550000032]},"properties":{"OBJECTID":50,"序号":50,"餐厅标准名称":"广州圣丰索菲特大酒店·全日制餐厅","品牌官方全称":"广州圣丰索菲特大酒店·全日制餐厅","所属国家":"法国","五大文化圈归类":"法语圈","门店经营变迁历史":"011年6月酒店开业本店同步运营；2019年酒店公区升级，本店仅围挡半营业，无全店封闭改造，本店无搬迁、无长期自主停业","是否经历迁址___重装___停业重启":"否","迁址___重装___停业重启具体年份":"无","所在片区开发历史":"2000年广州大道中圣丰片区商务地块开工建设","所属商圈成型年份":"2011.00","商圈升级关键节点":"2015年周边外贸餐饮配套完善；2020年片区商业亮化升级","数据来源":"雅高索菲特官方资料、会小二酒店餐饮平台档案","搜集人":"周奋清","备注":"本酒店配套餐厅，半围挡改造不计重装","纬度":23.14060555,"经度":113.31033452,"海拔":"14.00","入驻年份":null}},{"type":"Feature","id":51,"geometry":{"type":"Point","coordinates":[113.32054401000005,23.120272450000073]},"properties":{"OBJECTID":51,"序号":51,"餐厅标准名称":"广州瑰丽酒店·Patina European Brasserie & Terrace 苑","品牌官方全称":"Patina European Brasserie & Terrace苑","所属国家":"                 美国","五大文化圈归类":"英语圈","门店经营变迁历史":"2019年瑰丽酒店开业，本店95层同步运营；2022、2025年仅本店户外露台更换软装，室内无改造，本店无闭店、无地址变更","是否经历迁址___重装___停业重启":"否","迁址___重装___停业重启具体年份":"无","所在片区开发历史":"2010年周大福金融中心东塔地块动工","所属商圈成型年份":"2018.00","商圈升级关键节点":"2022年K11商场8-9层高端国际餐饮扩容升级","数据来源":"瑰丽大中华官方公众号、《悦游》酒店测评报道","搜集人":"周奋清","备注":"露台改造全程营业，不认定重装","纬度":23.120272450000002,"经度":113.32054401000001,"海拔":"5.00","入驻年份":null}},{"type":"Feature","id":52,"geometry":{"type":"Point","coordinates":[113.31712969000012,23.125514830000043]},"properties":{"OBJECTID":52,"序号":52,"餐厅标准名称":"The Happy Monk（侨鑫店）","品牌官方全称":"The Happy Monk","所属国家":"中国","五大文化圈归类":"英语圈","门店经营变迁历史":"2017年侨鑫国际商场开业本店入驻，经营地址固定；2021年本店露台扩建，围挡半营业，本店无全店闭店、无搬迁","是否经历迁址___重装___停业重启":"否","迁址___重装___停业重启具体年份":"无","所在片区开发历史":"2010年侨鑫国际金融中心地块动工","所属商圈成型年份":"2017.00","商圈升级关键节点":"2021年天河区打造侨鑫露台西餐特色街区","数据来源":"网易房产侨鑫开业报道、本店工商连锁门店备案","搜集人":"周奋清","备注":"露台扩建不计重装","纬度":23.12551483,"经度":113.31712969,"海拔":"-24","入驻年份":null}},{"type":"Feature","id":53,"geometry":{"type":"Point","coordinates":[113.31738320000011,23.125064530000031]},"properties":{"OBJECTID":53,"序号":53,"餐厅标准名称":"Brezn宝隆纳德国餐厅","品牌官方全称":"Brezn宝隆纳德国餐厅","所属国家":"                 德国","五大文化圈归类":"德语圈","门店经营变迁历史":"本店初代2011年太古汇铺位开业；2017年本店合约到期闭店6个月，门店搬迁至侨鑫国际首层重装营业；2020年侨鑫本店露台扩建半围挡营业，本店无二次搬迁","是否经历迁址___重装___停业重启":"部分经历","迁址___重装___停业重启具体年份":"2017年","所在片区开发历史":"原太古汇片区2005年地块动工；现侨鑫片区2010年地块动工","所属商圈成型年份":"2017.00","商圈升级关键节点":"太古汇2014年国际餐饮招商落地；侨鑫2021年露台西餐街区完工","数据来源":"搜狐美食本店搬迁专访、本店工商地址变更档案","搜集人":"周奋清","备注":"该门店两次地址变迁，露台半营业改造不计重装","纬度":23.12506453,"经度":113.31738319999999,"海拔":"-2","入驻年份":null}},{"type":"Feature","id":54,"geometry":{"type":"Point","coordinates":[113.3234108800001,23.123388700000078]},"properties":{"OBJECTID":54,"序号":54,"餐厅标准名称":"Bosphorus铂斯土耳其餐厅","品牌官方全称":"Bosphorus铂斯土耳其餐厅","所属国家":"中国","五大文化圈归类":"伊斯兰（中东文化圈）","门店经营变迁历史":"2008年小北肇庆大厦首层本店开业，18年地址无变更；2015年、2022年本店两次全店封闭改造，其余时间稳定营业，本店无长期闭店搬迁","是否经历迁址___重装___停业重启":"部分经历","迁址___重装___停业重启具体年份":"2015年和2022年","所在片区开发历史":"1990年代小北外贸商住地块批量开发","所属商圈成型年份":"2000.00","商圈升级关键节点":"2008年小北集中引入中东西餐；2016年越秀区划定小北异域美食街区","数据来源":"越秀区小北片区旧改公示、《广州日报》小北餐饮专题、本店工商固定地址档案","搜集人":"周奋清","备注":"无","纬度":23.1233887,"经度":113.32341088,"海拔":"-4","入驻年份":null}},{"type":"Feature","id":55,"geometry":{"type":"Point","coordinates":[113.27971439000009,23.139261970000064]},"properties":{"OBJECTID":55,"序号":55,"餐厅标准名称":"CZN Burak柏克土耳其西餐厅","品牌官方全称":"CZN Burak柏克土耳其西餐厅","所属国家":"               土耳其","五大文化圈归类":"伊斯兰（中东文化圈）","门店经营变迁历史":"2025年11月本店在环市东淘金开业，开业未满1年，本店无任何闭店、改造、搬迁记录","是否经历迁址___重装___停业重启":"否","迁址___重装___停业重启具体年份":"无","所在片区开发历史":"1995年淘金片区涉外住宅、写字楼地块开发","所属商圈成型年份":"2005.00","商圈升级关键节点":"2025年环市东商圈中东异域餐饮专项招商升级","数据来源":"赢商网本店首店开业新闻、本店工商注册档案","搜集人":"周奋清","备注":"国内仅此一家门店，经营周期短，暂无任何门店变迁记录","纬度":23.13926197,"经度":113.27971439,"海拔":"52.00","入驻年份":null}},{"type":"Feature","id":56,"geometry":null,"properties":{"OBJECTID":56,"Shape":null,"序号":null,"餐厅标准名称":null,"品牌官方全称":null,"所属国家":null,"五大文化圈归类":null,"门店经营变迁历史":null,"是否经历迁址___重装___停业重启":null,"迁址___重装___停业重启具体年份":null,"所在片区开发历史":null,"所属商圈成型年份":null,"商圈升级关键节点":null,"数据来源":null,"搜集人":null,"备注":null,"纬度":null,"经度":null,"海拔":null,"入驻年份":null}},{"type":"Feature","id":57,"geometry":null,"properties":{"OBJECTID":57,"Shape":null,"序号":null,"餐厅标准名称":null,"品牌官方全称":null,"所属国家":null,"五大文化圈归类":null,"门店经营变迁历史":null,"是否经历迁址___重装___停业重启":null,"迁址___重装___停业重启具体年份":null,"所在片区开发历史":null,"所属商圈成型年份":null,"商圈升级关键节点":null,"数据来源":null,"搜集人":null,"备注":null,"纬度":null,"经度":null,"海拔":null,"入驻年份":null}},{"type":"Feature","id":58,"geometry":null,"properties":{"OBJECTID":58,"Shape":null,"序号":null,"餐厅标准名称":null,"品牌官方全称":null,"所属国家":null,"五大文化圈归类":null,"门店经营变迁历史":null,"是否经历迁址___重装___停业重启":null,"迁址___重装___停业重启具体年份":null,"所在片区开发历史":null,"所属商圈成型年份":null,"商圈升级关键节点":null,"数据来源":null,"搜集人":null,"备注":null,"纬度":null,"经度":null,"海拔":null,"入驻年份":null}},{"type":"Feature","id":59,"geometry":null,"properties":{"OBJECTID":59,"Shape":null,"序号":null,"餐厅标准名称":null,"品牌官方全称":null,"所属国家":null,"五大文化圈归类":null,"门店经营变迁历史":null,"是否经历迁址___重装___停业重启":null,"迁址___重装___停业重启具体年份":null,"所在片区开发历史":null,"所属商圈成型年份":null,"商圈升级关键节点":null,"数据来源":null,"搜集人":null,"备注":null,"纬度":null,"经度":null,"海拔":null,"入驻年份":null}},{"type":"Feature","id":60,"geometry":null,"properties":{"OBJECTID":60,"Shape":null,"序号":null,"餐厅标准名称":null,"品牌官方全称":null,"所属国家":null,"五大文化圈归类":null,"门店经营变迁历史":null,"是否经历迁址___重装___停业重启":null,"迁址___重装___停业重启具体年份":null,"所在片区开发历史":null,"所属商圈成型年份":null,"商圈升级关键节点":null,"数据来源":null,"搜集人":null,"备注":null,"纬度":null,"经度":null,"海拔":null,"入驻年份":null}}]}